NORAD_CAT_ID,OBJECT_NAME,OBJECT_TYPE,EPOCH,MEAN_MOTION,ECCENTRICITY,INCLINATION,RA_OF_ASC_NODE,ARG_OF_PERICENTER,MEAN_ANOMALY,BSTAR,MEAN_MOTION_DOT,MEAN_MOTION_DDOT,TLE_LINE0,TLE_LINE1,TLE_LINE2,SEMIMAJOR_AXIS,PERIOD,APOGEE,PERIGEE,DECAYED
55945.0,STARLINK-5925,PAYLOAD,2024-07-01 21:43:49,14.98327185,0.0002936,69.9998,36.9875,270.1789,89.9034,0.00014416,1.627e-05,0.0,0 STARLINK-5925,1 55945U 23037AH  24183.90543557  .00001627  00000-0  14416-3 0  9994,2 55945  69.9998  36.9875 0002936 270.1789  89.9034 14.98327185 71742,6950.202,96.107,574.107,570.026,0.0
55945.0,STARLINK-5925,PAYLOAD,2024-07-02 13:45:10,14.98333965,0.0002786,70.0003,35.3041,269.7514,90.3326,-5.2048e-05,-7.14e-06,0.0,0 STARLINK-5925,1 55945U 23037AH  24184.57303669 -.00000714  00000-0 -52048-4 0  9998,2 55945  70.0003  35.3041 0002786 269.7514  90.3326 14.98333965 72185,6950.181,96.107,573.982,570.109,0.0
55945.0,STARLINK-5925,PAYLOAD,2024-07-02 21:45:50,14.98332521,0.0002845,70.0002,34.4624,269.6919,90.3914,-6.5099e-05,-8.7e-06,0.0,0 STARLINK-5925,1 55945U 23037AH  24184.90683692 -.00000870  00000-0 -65099-4 0  9995,2 55945  70.0002  34.4624 0002845 269.6919  90.3914 14.98332521 71892,6950.185,96.107,574.027,570.073,0.0
55945.0,STARLINK-5925,PAYLOAD,2024-07-03 20:11:43,14.98331043,0.0002986,69.9998,32.1051,271.0395,89.0422,-4.0027e-05,-5.71e-06,0.0,0 STARLINK-5925,1 55945U 23037AH  24185.84147544 -.00000571  00000-0 -40027-4 0  9992,2 55945  69.9998  32.1051 0002986 271.0395  89.0422 14.98331043 72374,6950.19,96.107,574.13,569.979,0.0
55945.0,STARLINK-5925,PAYLOAD,2024-07-03 21:47:51,14.98329584,0.0002947,70.0,31.9369,269.9859,90.0963,-4.9075e-05,-6.78e-06,0.0,0 STARLINK-5925,1 55945U 23037AH  24185.90823660 -.00000678  00000-0 -49075-4 0  9999,2 55945  70.0000  31.9369 0002947 269.9859  90.0963 14.98329584 72041,6950.194,96.107,574.107,570.011,0.0
55945.0,STARLINK-5925,PAYLOAD,2024-07-04 13:49:12,14.98327963,0.0003063,69.9997,30.2527,270.8468,89.234,4.3807e-05,4.3e-06,0.0,0 STARLINK-5925,1 55945U 23037AH  24186.57583437  .00000430  00000-0  43807-4 0  9999,2 55945  69.9997  30.2527 0003063 270.8468  89.2340 14.98327963 72147,6950.199,96.107,574.193,569.935,0.0
55945.0,STARLINK-5925,PAYLOAD,2024-07-04 20:13:44,14.98330999,0.0003126,69.9997,29.5801,271.9446,88.1355,1.6821e-05,1.08e-06,0.0,0 STARLINK-5925,1 55945U 23037AH  24186.84287350  .00000108  00000-0  16821-4 0  9992,2 55945  69.9997  29.5801 0003126 271.9446  88.1355 14.98330999 72520,6950.19,96.107,574.227,569.882,0.0
55945.0,STARLINK-5925,PAYLOAD,2024-07-04 21:49:52,14.98331766,0.0003114,69.9997,29.4117,271.9558,88.1244,2.564e-05,2.13e-06,0.0,0 STARLINK-5925,1 55945U 23037AH  24186.90963272  .00000213  00000-0  25640-4 0  9999,2 55945  69.9997  29.4117 0003114 271.9558  88.1244 14.98331766 72193,6950.187,96.107,574.217,569.888,0.0
55945.0,STARLINK-5925,PAYLOAD,2024-07-05 13:51:13,14.9832718,0.0003104,69.9997,27.7286,272.0622,88.0182,1.5135e-05,8.8e-07,0.0,0 STARLINK-5925,1 55945U 23037AH  24187.57723559  .00000088  00000-0  15135-4 0  9993,2 55945  69.9997  27.7286 0003104 272.0622  88.0182 14.98327180 72290,6950.202,96.107,574.224,569.909,0.0
55945.0,STARLINK-5925,PAYLOAD,2024-07-05 20:15:45,14.98331355,0.0003114,69.9998,27.0553,272.0952,87.9851,2.9787e-05,2.62e-06,0.0,0 STARLINK-5925,1 55945U 23037AH  24187.84427274  .00000262  00000-0  29787-4 0  9990,2 55945  69.9998  27.0553 0003114 272.0952  87.9851 14.98331355 72670,6950.189,96.107,574.218,569.889,0.0
55945.0,STARLINK-5925,PAYLOAD,2024-07-05 21:51:53,14.98332357,0.0003093,69.9998,26.8869,272.0118,88.0687,4.1471e-05,4.02e-06,0.0,0 STARLINK-5925,1 55945U 23037AH  24187.91103170  .00000402  00000-0  41471-4 0  9994,2 55945  69.9998  26.8869 0003093 272.0118  88.0687 14.98332357 72343,6950.186,96.107,574.2,569.901,0.0
55945.0,STARLINK-5925,PAYLOAD,2024-07-06 13:53:13,14.98331197,0.0003004,70.0001,25.2036,272.8103,87.2712,8.1937e-06,5e-08,0.0,0 STARLINK-5925,1 55945U 23037AH  24188.57863275  .00000005  00000-0  81937-5 0  9997,2 55945  70.0001  25.2036 0003004 272.8103  87.2712 14.98331197 72446,6950.189,96.107,574.142,569.966,0.0
55945.0,STARLINK-5925,PAYLOAD,2024-07-06 20:17:46,14.98331288,0.0003003,70.0002,24.5305,272.2941,87.7874,1.1427e-05,4.3e-07,0.0,0 STARLINK-5925,1 55945U 23037AH  24188.84567228  .00000043  00000-0  11427-4 0  9994,2 55945  70.0002  24.5305 0003003 272.2941  87.7874 14.98331288 72828,6950.189,96.107,574.141,569.967,0.0
55945.0,STARLINK-5925,PAYLOAD,2024-07-06 21:53:54,14.98331851,0.0002998,70.0002,24.3621,272.3635,87.718,1.7555e-05,1.16e-06,0.0,0 STARLINK-5925,1 55945U 23037AH  24188.91243167  .00000116  00000-0  17555-4 0  9994,2 55945  70.0002  24.3621 0002998 272.3635  87.7180 14.98331851 72499,6950.187,96.107,574.136,569.969,0.0
55945.0,STARLINK-5925,PAYLOAD,2024-07-07 13:55:14,14.98331406,0.0002976,70.0002,22.679,271.4147,88.6671,-1.0409e-05,-2.17e-06,0.0,0 STARLINK-5925,1 55945U 23037AH  24189.58003202 -.00000217  00000-0 -10409-4 0  9997,2 55945  70.0002  22.6790 0002976 271.4147  88.6671 14.98331406 72593,6950.189,96.107,574.122,569.985,0.0
55945.0,STARLINK-5925,PAYLOAD,2024-07-07 20:19:47,14.98331005,0.0002969,70.0003,22.0061,269.6134,90.4684,-1.0781e-05,-2.22e-06,0.0,0 STARLINK-5925,1 55945U 23037AH  24189.84707188 -.00000222  00000-0 -10781-4 0  9999,2 55945  70.0003  22.0061 0002969 269.6134  90.4684 14.98331005 72978,6950.19,96.107,574.118,569.991,0.0
55945.0,STARLINK-5925,PAYLOAD,2024-07-08 12:20:43,14.98578733,0.0004667,70.0003,20.3219,266.3813,93.6813,0.0024434,0.00029376,0.0,0 STARLINK-5925,1 55945U 23037AH  24190.51438673  .00029376  00000-0  24434-2 0  9992,2 55945  70.0003  20.3219 0004667 266.3813  93.6813 14.98578733 73071,6949.424,96.091,574.532,568.046,0.0
55945.0,STARLINK-5925,PAYLOAD,2024-07-08 13:59:33,14.96446187,0.0007936,70.0,20.1596,8.8686,351.261,-0.021922,-0.00241064,0.0,0 STARLINK-5925,1 55945U 23037AH  24190.58303098 -.00241064  00000-0 -21922-1 0  9991,2 55945  70.0000  20.1596 0007936   8.8686 351.2610 14.96446187 72749,6956.025,96.228,583.41,572.369,0.0
55945.0,STARLINK-5925,PAYLOAD,2024-07-08 22:00:00,14.98323583,0.0003158,70.0015,19.3076,273.8836,94.0076,0.00058062,6.841e-05,0.0,0 STARLINK-5925,1 55945U 23037AH  24190.91667824  .00006841  00000-0  58062-3 0  9995,2 55945  70.0015  19.3076 0003158 273.8836  94.0076 14.98323583 73139,6950.213,96.107,574.273,569.883,0.0
55945.0,STARLINK-5925,PAYLOAD,2024-07-09 13:59:16,14.98327039,0.0003086,69.9997,17.6284,270.9014,89.1791,-9.4615e-06,-2.06e-06,0.0,0 STARLINK-5925,1 55945U 23037AH  24191.58283283 -.00000206  00000-0 -94615-5 0  9999,2 55945  69.9997  17.6284 0003086 270.9014  89.1791 14.98327039 72894,6950.202,96.107,574.212,569.922,0.0
55945.0,STARLINK-5925,PAYLOAD,2024-07-09 21:59:56,14.98331577,0.0003107,70.0001,16.7867,270.1036,89.9767,8.5224e-06,9e-08,0.0,0 STARLINK-5925,1 55945U 23037AH  24191.91662954  .00000009  00000-0  85224-5 0  9997,2 55945  70.0001  16.7867 0003107 270.1036  89.9767 14.98331577 72949,6950.188,96.107,574.212,569.894,0.0
55945.0,STARLINK-5925,PAYLOAD,2024-07-10 12:25:09,14.98327619,0.000302,70.0004,15.2719,269.6641,90.4172,-1.1724e-05,-2.33e-06,0.0,0 STARLINK-5925,1 55945U 23037AH  24192.51747308 -.00000233  00000-0 -11724-4 0  9995,2 55945  70.0004  15.2719 0003020 269.6641  90.4172 14.98327619 73378,6950.2,96.107,574.164,569.966,0.0
55945.0,STARLINK-5925,PAYLOAD,2024-07-10 22:01:57,14.98329428,0.0003012,70.0006,14.2619,269.6957,90.3857,1.0102e-05,2.8e-07,0.0,0 STARLINK-5925,1 55945U 23037AH  24192.91803169  .00000028  00000-0  10102-4 0  9996,2 55945  70.0006  14.2619 0003012 269.6957  90.3857 14.98329428 73097,6950.195,96.107,574.153,569.966,0.0
55945.0,STARLINK-5925,PAYLOAD,2024-07-11 14:03:18,14.98333772,0.0003059,70.0004,12.579,271.4719,88.609,7.402e-05,7.9e-06,0.0,0 STARLINK-5925,1 55945U 23037AH  24193.58562617  .00000790  00000-0  74020-4 0  9995,2 55945  70.0004  12.5790 0003059 271.4719  88.6090 14.98333772 73191,6950.181,96.107,574.172,569.92,0.0
55945.0,STARLINK-5925,PAYLOAD,2024-07-11 18:51:42,14.98336835,0.0003073,70.0004,12.0737,270.1045,89.9761,7.7957e-05,8.37e-06,0.0,0 STARLINK-5925,1 55945U 23037AH  24193.78590341  .00000837  00000-0  77957-4 0  9996,2 55945  70.0004  12.0737 0003073 270.1045  89.9761 14.98336835 73564,6950.172,96.107,574.173,569.901,0.0
55945.0,STARLINK-5925,PAYLOAD,2024-07-12 12:29:11,14.98328361,0.0002964,70.0008,10.2222,270.7397,89.3422,-1.0148e-05,-2.14e-06,0.0,0 STARLINK-5925,1 55945U 23037AH  24194.52027009 -.00000214  00000-0 -10148-4 0  9995,2 55945  70.0008  10.2222 0002964 270.7397  89.3422 14.98328361 73676,6950.198,96.107,574.123,570.003,0.0
55945.0,STARLINK-5925,PAYLOAD,2024-07-12 14:05:19,14.98327636,0.0002975,70.0007,10.0539,270.6309,89.4509,-1.697e-05,-2.95e-06,0.0,0 STARLINK-5925,1 55945U 23037AH  24194.58703071 -.00000295  00000-0 -16970-4 0  9999,2 55945  70.0007  10.0539 0002975 270.6309  89.4509 14.98327636 73343,6950.2,96.107,574.133,569.998,0.0
55945.0,STARLINK-5925,PAYLOAD,2024-07-12 22:05:59,14.98329007,0.0002909,70.001,9.2131,267.2911,92.7915,4.9039e-06,-3.4e-07,0.0,0 STARLINK-5925,1 55945U 23037AH  24194.92082920 -.00000034  00000-0  49039-5 0  9993,2 55945  70.0010   9.2131 0002909 267.2911  92.7915 14.98329007 73390,6950.196,96.107,574.083,570.039,0.0
55945.0,STARLINK-5925,PAYLOAD,2024-07-13 12:31:12,14.98333763,0.0002894,70.001,7.6979,268.4013,91.6814,-4.8777e-05,-6.75e-06,0.0,0 STARLINK-5925,1 55945U 23037AH  24195.52166742 -.00000675  00000-0 -48777-4 0  9994,2 55945  70.0010   7.6979 0002894 268.4013  91.6814 14.98333763 73829,6950.181,96.107,574.058,570.035,0.0
55945.0,STARLINK-5925,PAYLOAD,2024-07-13 14:07:20,14.98333465,0.0002904,70.001,7.5296,268.2831,91.7995,-5.1376e-05,-7.06e-06,0.0,0 STARLINK-5925,1 55945U 23037AH  24195.58842749 -.00000706  00000-0 -51376-4 0  9992,2 55945  70.0010   7.5296 0002904 268.2831  91.7995 14.98333465 73491,6950.182,96.107,574.066,570.029,0.0
